#dP2024  4 30  0  0  0.00000000     289 d+D   IGS20 FIT AIUB
## 2312 172800.00000000   300.00000000 60430 0.0000000000000
+  121   G01G02G03G04G05G06G07G08G09G10G11G12G13G14G15G16G17
+        G18G19G20G21G22G23G24G25G26G27G28G29G30G31G32R01R02
+        R03R04R05R07R08R09R11R12R13R14R15R16R17R18R19R20R21
+        R22R24R25R26E02E03E04E05E07E08E09E10E11E12E13E14E15
+        E18E19E21E24E25E26E27E30E31E33E34E36C06C07C08C09C10
+        C11C12C13C14C16C19C20C21C22C23C24C25C26C27C28C29C30
+        C32C33C34C35C36C37C38C39C40C41C42C43C44C45C46C48J02
+        J03J04  0  0  0  0  0  0  0  0  0  0  0  0  0  0  0
++         5  5  5  5  5  5  5  5  5  5  5  5  5  5  5  5  5
++         5  5  5  5  5  5  5  5  5  5  5  5  5  5  5  5  5
++         5  5  5  5  5  5  5  5  5  5  6  5  5  5  5  5  5
++         5  5  5  5  5  5  5  5  5  5  5  5  5  5  5  5  5
++         5  5  5  5  5  5  5  5  5  5  5  5  5  5  5  5  5
++         5  5  5  5  5  5  5  5  5  5  5  5  5  5  5  5  5
++         5  5  5  5  5  5  5  5  5  5  5  5  5  5  5  5  5
++         5  5  0  0  0  0  0  0  0  0  0  0  0  0  0  0  0
%c M  cc GPS ccc cccc cccc cccc cccc ccccc ccccc ccccc ccccc
%c cc cc ccc ccc cccc cccc cccc cccc ccccc ccccc ccccc ccccc
%f  1.2500000  1.025000000  0.00000000000  0.000000000000000
%f  0.0000000  0.000000000  0.00000000000  0.000000000000000
%i    0    0    0    0      0      0      0      0         0
%i    0    0    0    0      0      0      0      0         0
/* Center for Orbit Determination in Europe (CODE)                              
/* MGEX orbits and clocks for year-day 2024-1210                                
/* Middle day of a 3-day long-arc multi-GNSS solution                           
/* Systems considered: GPS/GLONASS/Galileo/BeiDou/QZSS                          
/* Product reference - DOI 10.48350/185742                                      
/* PCV:IGS20      OL/AL:FES2014b NONE     YN ORB:CoN CLK:CoN                    
*  2024  4 30  6  0  0.00000000
PG01   6768.033849 -25039.645675  -5190.174574    279.635841
PG02 -21357.297148 -11827.429286  11279.649433   -444.623891
PG03 -15225.620361   -728.231750  21584.105344    338.260490
PG04 -25722.147273  -2043.393819   6607.828049    350.355546
PG05   8716.355611  15702.997008 -19712.602982   -170.975196
PG06    810.047843  20083.834387  17363.038238    297.283919
PG07 -14824.537312   5281.893938 -20942.062886   -118.479624
PG08 -20702.103037  -7489.934457 -15264.116842    151.724626
PG09 -24670.014676   8088.962323  -5817.182481    178.761526
PG10  10428.620076 -24219.736141   -652.711090    -15.581171
PG11  10881.837400  23385.288123   6471.428052   -650.016617
PG12  14946.505188   3366.555294  21406.859272   -501.123803
PG13  12623.487438  13385.487605 -19443.332034    646.790102
PG14 -13345.298568  22395.000240  -4439.611385    388.935466
PG15  21235.297441   5707.855528 -15528.411128    153.865315
PG16  -4322.779534 -19087.812206 -18080.168039   -303.992181
PG17 -16057.927685  13012.008685  17190.491532    709.547373
PG18  13834.095417  -6196.268208 -21812.657298   -603.023766
PG19  -6200.259610  14644.757213  21023.156644    475.331330
PG20   3052.188932  23877.569158 -11331.719821    378.325286
PG21 -21003.675760 -16045.350845   6424.008574    124.415129
PG22  -9430.697427  24689.611811   4335.861222     -6.843581
PG23  15500.676655 -17529.513965 -12354.570031    213.481496
PG24  21250.139643  13834.871157   8158.550695   -464.905861
PG25  17083.474370  -7647.258273  18400.866160    494.816351
PG26   2735.671958 -25342.295158  -6902.704080    159.733321
PG27  -9712.855005 -13466.966439 -21104.798434    -21.532813
PG28   1035.440965 -19021.646509  18495.996557   -223.913361
PG29  26062.692352  -4033.652009  -3673.904884   -600.175513
PG30  -6561.281857  15792.701761 -20115.060588   -397.696088
PG31  -7445.387914 -22837.656874  10673.721200   -227.941182
PG32  12541.598253 -14738.211332  18314.645862   -618.425002
PR01 -15323.396901  16123.270818 -12463.887619     83.939889
PR02    -47.548291  11982.508044 -22476.244329    -22.839811
PR03  16071.933887   1546.626106 -19675.400833     99.231705
PR04  22899.690552  -9326.077308  -6214.089744    234.268828
PR05  17533.976787 -15185.420298  10608.470556    130.761534
PR07 -16738.220924   -979.214660  19287.365262     81.342514
PR08 -22881.466228   9560.291445   6105.553903    -75.251449
PR09  -3392.304645 -24660.552371  -5747.212900    183.871602
PR11 -10777.335020   4114.212312 -22738.357075     26.332037
PR12  -5746.391130  21869.877727 -11792.954919     39.582167
PR13   1760.866548  25233.003251   3291.344309    -46.901033
PR14   9573.287565  13193.166074  19624.003491     26.446284
PR15  10796.236194  -5801.242604  22390.199529     80.191795
PR16   5688.331651 -21752.505652  12091.861595     25.197497
PR17  21972.559170  12988.958315   -382.374379     82.509366
PR18  19662.859565   3750.265211 -15767.181612    139.689138
PR19   9202.830721  -6215.593255 -22969.057676   -274.883295
PR20 -10675.293630 -16029.404846 -16749.158043   -112.059025
PR21 -21817.533909 -13190.446230    298.790141    -96.908060
PR22 -19214.838606  -3235.518726  16493.000831    114.470487
PR24  11620.591880  15914.862907  16214.829865    -53.891149
PR25 -21472.748570 -13738.816727    633.400969    -32.552052
PR26 -22722.564755   9054.885885   7214.194192    -22.233678
PE02  -7168.405719  27796.863830   7240.924065    123.559389
PE03  -4363.451741  17139.003226 -23729.585033   -110.602976
PE04 -17885.102344 -12290.277032  20142.129205   -385.618718
PE05 -23619.255644  11841.002389 -13328.869520   4743.274850
PE07  29128.263504    649.392768  -5255.902124   -117.410240
PE08  17125.814317  12531.714974 -20635.173324   -263.074417
PE09 -29085.344954   -707.259115   5408.486245   -425.534760
PE10 -21202.043454 -17799.698598  10472.992101   -621.075252
PE11 -21172.218103  -8607.224383  18806.713309   2954.746770
PE12 -18049.607933 -23430.142119   1480.917034  -1016.972370
PE13  21235.141109   9177.083501 -18459.798027    -21.294377
PE14  12980.867376 -19198.838772 -21363.132225     21.578887
PE15  17795.998628  23625.997722   -934.618731   -100.059804
PE18   4082.442670  16204.218266  19368.346725     56.484122
PE19   6847.845627 -16888.973137  23340.115022   -150.565121
PE21  17692.196173 -21155.853328  10748.045435   -591.941482
PE24 -18336.645803   1427.059237 -23214.752535   -735.753507
PE25 -17829.397022  20855.266893 -11108.609199      3.937367
PE26  11919.763934 -11025.919005 -24749.269541    440.519191
PE27  18354.253347  -1824.389223  23147.170292   -337.233050
PE30   8063.673643  18505.874168  21638.972107   -250.922276
PE31  -8190.255569 -18334.379553 -21743.991604    -22.188891
PE33  -3535.889202 -23801.956382 -17241.070502     11.081376
PE34   4026.188689  23994.245643  16851.625146   -108.534148
PE36 -12226.263873  10351.551744  24887.397330   -220.431386
PC06   -555.585090  28848.663777 -30551.502677    385.056462
PC07 -17377.705570  31035.230208  22567.346977   -773.800843
PC08  -9876.134832  40623.831226   6255.043601    -70.451843
PC09   5155.816867  31484.264350 -26769.231555   -833.570083
PC10  -8105.339168  31043.781834  27441.252905     66.896114
PC11   2889.969946  17013.684049  21993.480073    538.011656
PC12 -17086.160107   8018.490806  20587.099991   -239.270276
PC13  -4998.080327  42007.650000   -548.436431    433.528098
PC14  -7039.645576  20912.629705 -17028.304316    766.046667
PC16  -5213.891155  25684.632942 -32657.818018   -490.563250
PC19  -2315.250936 -17239.423271  21857.236210   -913.347759
PC20  14114.619367 -21418.344567  11054.396587   -413.366341
PC21 -23550.322239  12882.095260   7580.290553   -964.788409
PC22 -18416.988191  -2923.799837  20750.030609    -21.278154
PC23  15567.965238  14939.421399  17702.906021   -777.014968
PC24  -6256.322124  23304.288204 -14049.667129    931.780429
PC25   7347.874223  26786.528855   2783.186517    387.626603
PC26 -15181.993185   6639.836640 -22473.583114   -284.509596
PC27  23517.111339  -2268.187772 -14866.251101    306.098535
PC28  26147.263396   9749.297689   -151.700235    234.343840
PC29 -12925.846843 -17373.294003 -17613.233600    274.945756
PC30   8522.236194 -13959.163263 -22621.354242    -66.441785
PC32  23465.908766 -13062.820622  -7608.037133   -612.594949
PC33   2384.568267  17253.176229 -21790.753592   -968.322405
PC34  -6824.363414  14664.251142  22724.209311    423.240364
PC35 -26452.493613  -8954.041066   -141.679315    374.746265
PC36  -6634.331400 -26971.315809  -2636.366123     67.042034
PC37  15405.454412  -5964.620065  22498.957252   -967.107212
PC38 -13148.011386  37931.363189  13151.488316    152.117387
PC39  -9135.281602  22878.893476 -34126.719318     -8.208319
PC40 -24391.738363  25142.867038  23254.005500    -67.907356
PC41  17926.728581   3570.860833 -21036.184343   -936.437733
PC42 -15358.228009  21236.558868  -9484.799034   -442.694398
PC43  11924.496620  17548.795546  18100.964112     69.845101
PC44 -23573.186509   3099.079253  14615.908543    458.928171
PC45 -15406.163955 -15055.003533 -17731.563123    -82.941920
PC46   5764.138301 -23707.307249  13507.471817   -144.255852
PC48   6757.004265 -21111.012780  16966.512814    421.290003
PJ02 -26014.612439  32668.125076  -1708.716396     -4.692593
PJ03 -26329.373395  22276.730927  29379.485488      0.067235
PJ04 -33763.914035  24890.491086    526.918788     50.383359
EOF
